{
  "type": "FeatureCollection",
  "features": [
    {
      "type": "Feature",
      "properties": {
        "norad_id": 32275,
        "name": "COSMOS 2433 (720)",
        "group": "glo-ops",
        "lat": -64.45106227465322,
        "lon": -146.64924077214212,
        "alt_km": 19122.62209629271,
        "timestamp": "2025-12-08T17:43:05.191387+00:00",
        "meta_object_name": "COSMOS 2433 (720)",
        "meta_object_id": "2007-052A",
        "meta_epoch": "2025-12-07T22:15:39.436992",
        "meta_mean_motion": 2.13103936,
        "meta_eccentricity": 0.00054366,
        "meta_inclination": 65.6859,
        "meta_ra_of_asc_node": 322.3673,
        "meta_arg_of_pericenter": 253.7081,
        "meta_mean_anomaly": 106.2283,
        "meta_ephemeris_type": 0,
        "meta_classification_type": "U",
        "meta_norad_cat_id": 32275,
        "meta_element_set_no": 999,
        "meta_rev_at_epoch": 14098,
        "meta_bstar": 0,
        "meta_mean_motion_dot": -4.9e-07,
        "meta_mean_motion_ddot": 0,
        "tle_line1": "1 32275U 07052A   25341.92753978 -.00000049  00000+0  00000+0 0  9990",
        "tle_line2": "2 32275  65.6859 322.3673 0005436 253.7081 106.2283  2.13103936140982"
      },
      "geometry": {
        "type": "Point",
        "coordinates": [
          -146.64924077214212,
          -64.45106227465322
        ]
      }
    },
    {
      "type": "Feature",
      "properties": {
        "norad_id": 32276,
        "name": "COSMOS 2432 (719)",
        "group": "glo-ops",
        "lat": -23.81976332102728,
        "lon": 153.95550957323692,
        "alt_km": 19141.17781088975,
        "timestamp": "2025-12-08T17:43:05.191412+00:00",
        "meta_object_name": "COSMOS 2432 (719)",
        "meta_object_id": "2007-052B",
        "meta_epoch": "2025-12-08T02:14:19.806720",
        "meta_mean_motion": 2.13103088,
        "meta_eccentricity": 0.00112877,
        "meta_inclination": 65.7017,
        "meta_ra_of_asc_node": 322.4859,
        "meta_arg_of_pericenter": 312.3782,
        "meta_mean_anomaly": 119.1922,
        "meta_ephemeris_type": 0,
        "meta_classification_type": "U",
        "meta_norad_cat_id": 32276,
        "meta_element_set_no": 999,
        "meta_rev_at_epoch": 14101,
        "meta_bstar": 0,
        "meta_mean_motion_dot": -4.9e-07,
        "meta_mean_motion_ddot": 0,
        "tle_line1": "1 32276U 07052B   25342.09328480 -.00000049  00000+0  00000+0 0  9996",
        "tle_line2": "2 32276  65.7017 322.4859 0011287 312.3782 119.1922  2.13103088141014"
      },
      "geometry": {
        "type": "Point",
        "coordinates": [
          153.95550957323692,
          -23.81976332102728
        ]
      }
    },
    {
      "type": "Feature",
      "properties": {
        "norad_id": 32393,
        "name": "COSMOS 2434 (721)",
        "group": "glo-ops",
        "lat": 24.524520317419366,
        "lon": 5.657453859769743,
        "alt_km": 19125.54771659563,
        "timestamp": "2025-12-08T17:43:05.191428+00:00",
        "meta_object_name": "COSMOS 2434 (721)",
        "meta_object_id": "2007-065A",
        "meta_epoch": "2025-12-08T05:21:15.731136",
        "meta_mean_motion": 2.13101228,
        "meta_eccentricity": 0.00044814,
        "meta_inclination": 64.3148,
        "meta_ra_of_asc_node": 198.3559,
        "meta_arg_of_pericenter": 71.0536,
        "meta_mean_anomaly": 46.2753,
        "meta_ephemeris_type": 0,
        "meta_classification_type": "U",
        "meta_norad_cat_id": 32393,
        "meta_element_set_no": 999,
        "meta_rev_at_epoch": 13970,
        "meta_bstar": 0,
        "meta_mean_motion_dot": 5e-07,
        "meta_mean_motion_ddot": 0,
        "tle_line1": "1 32393U 07065A   25342.22309874  .00000050  00000+0  00000+0 0  9992",
        "tle_line2": "2 32393  64.3148 198.3559 0004481  71.0536  46.2753  2.13101228139704"
      },
      "geometry": {
        "type": "Point",
        "coordinates": [
          5.657453859769743,
          24.524520317419366
        ]
      }
    },
    {
      "type": "Feature",
      "properties": {
        "norad_id": 32395,
        "name": "COSMOS 2436 (723)",
        "group": "glo-ops",
        "lat": -60.32815654293067,
        "lon": 140.80028841031486,
        "alt_km": 19131.56151816305,
        "timestamp": "2025-12-08T17:43:05.191442+00:00",
        "meta_object_name": "COSMOS 2436 (723)",
        "meta_object_id": "2007-065C",
        "meta_epoch": "2025-12-08T02:01:11.627904",
        "meta_mean_motion": 2.13100022,
        "meta_eccentricity": 0.00177472,
        "meta_inclination": 64.3236,
        "meta_ra_of_asc_node": 198.4308,
        "meta_arg_of_pericenter": 9.2257,
        "meta_mean_anomaly": 134.6131,
        "meta_ephemeris_type": 0,
        "meta_classification_type": "U",
        "meta_norad_cat_id": 32395,
        "meta_element_set_no": 999,
        "meta_rev_at_epoch": 13965,
        "meta_bstar": 0,
        "meta_mean_motion_dot": 5.1e-07,
        "meta_mean_motion_ddot": 0,
        "tle_line1": "1 32395U 07065C   25342.08416236  .00000051  00000+0  00000+0 0  9990",
        "tle_line2": "2 32395  64.3236 198.4308 0017747   9.2257 134.6131  2.13100022139656"
      },
      "geometry": {
        "type": "Point",
        "coordinates": [
          140.80028841031486,
          -60.32815654293067
        ]
      }
    },
    {
      "type": "Feature",
      "properties": {
        "norad_id": 36111,
        "name": "COSMOS 2456 (730)",
        "group": "glo-ops",
        "lat": -44.26204700594363,
        "lon": 50.344145481680215,
        "alt_km": 19127.54664604692,
        "timestamp": "2025-12-08T17:43:05.191455+00:00",
        "meta_object_name": "COSMOS 2456 (730)",
        "meta_object_id": "2009-070A",
        "meta_epoch": "2025-12-07T20:44:40.162272",
        "meta_mean_motion": 2.13103432,
        "meta_eccentricity": 0.00030434,
        "meta_inclination": 64.8974,
        "meta_ra_of_asc_node": 77.5047,
        "meta_arg_of_pericenter": 297.6461,
        "meta_mean_anomaly": 61.5166,
        "meta_ephemeris_type": 0,
        "meta_classification_type": "U",
        "meta_norad_cat_id": 36111,
        "meta_element_set_no": 999,
        "meta_rev_at_epoch": 12434,
        "meta_bstar": 0,
        "meta_mean_motion_dot": -1.5e-07,
        "meta_mean_motion_ddot": 0,
        "tle_line1": "1 36111U 09070A   25341.86435373 -.00000015  00000+0  00000+0 0  9997",
        "tle_line2": "2 36111  64.8974  77.5047 0003043 297.6461  61.5166  2.13103432124345"
      },
      "geometry": {
        "type": "Point",
        "coordinates": [
          50.344145481680215,
          -44.26204700594363
        ]
      }
    },
    {
      "type": "Feature",
      "properties": {
        "norad_id": 36112,
        "name": "COSMOS 2457 (733)",
        "group": "glo-ops",
        "lat": 62.63838146139257,
        "lon": 142.15594346196454,
        "alt_km": 19121.052280259002,
        "timestamp": "2025-12-08T17:43:05.191467+00:00",
        "meta_object_name": "COSMOS 2457 (733)",
        "meta_object_id": "2009-070B",
        "meta_epoch": "2025-12-08T05:12:02.715840",
        "meta_mean_motion": 2.13100811,
        "meta_eccentricity": 0.0004735,
        "meta_inclination": 64.8829,
        "meta_ra_of_asc_node": 77.3403,
        "meta_arg_of_pericenter": 158.3782,
        "meta_mean_anomaly": 240.2784,
        "meta_ephemeris_type": 0,
        "meta_classification_type": "U",
        "meta_norad_cat_id": 36112,
        "meta_element_set_no": 999,
        "meta_rev_at_epoch": 12436,
        "meta_bstar": 0,
        "meta_mean_motion_dot": -1.5e-07,
        "meta_mean_motion_ddot": 0,
        "tle_line1": "1 36112U 09070B   25342.21669810 -.00000015  00000+0  00000+0 0  9993",
        "tle_line2": "2 36112  64.8829  77.3403 0004735 158.3782 240.2784  2.13100811124369"
      },
      "geometry": {
        "type": "Point",
        "coordinates": [
          142.15594346196454,
          62.63838146139257
        ]
      }
    },
    {
      "type": "Feature",
      "properties": {
        "norad_id": 36402,
        "name": "COSMOS 2460 (732)",
        "group": "glo-ops",
        "lat": 62.99718671054681,
        "lon": 24.19712771210883,
        "alt_km": 19129.38908346052,
        "timestamp": "2025-12-08T17:43:05.191502+00:00",
        "meta_object_name": "COSMOS 2460 (732)",
        "meta_object_id": "2010-007C",
        "meta_epoch": "2025-12-08T05:41:00.073824",
        "meta_mean_motion": 2.13106068,
        "meta_eccentricity": 0.00026932,
        "meta_inclination": 65.5322,
        "meta_ra_of_asc_node": 320.9255,
        "meta_arg_of_pericenter": 274.5439,
        "meta_mean_anomaly": 138.949,
        "meta_ephemeris_type": 0,
        "meta_classification_type": "U",
        "meta_norad_cat_id": 36402,
        "meta_element_set_no": 999,
        "meta_rev_at_epoch": 12266,
        "meta_bstar": 0,
        "meta_mean_motion_dot": -4.9e-07,
        "meta_mean_motion_ddot": 0,
        "tle_line1": "1 36402U 10007C   25342.23680641 -.00000049  00000+0  00000+0 0  9991",
        "tle_line2": "2 36402  65.5322 320.9255 0002693 274.5439 138.9490  2.13106068122668"
      },
      "geometry": {
        "type": "Point",
        "coordinates": [
          24.19712771210883,
          62.99718671054681
        ]
      }
    }
  ]
}